CCSDS_OMM_VERS = 2.0
CREATION_DATE  = 
ORIGINATOR     = 

OBJECT_NAME    = CZ-5 R/B
OBJECT_ID      = 2025-238B
CENTER_NAME    = EARTH
REF_FRAME      = TEME
TIME_SYSTEM    = UTC
MEAN_ELEMENT_THEORY = SGP/SGP4

EPOCH          = 2025-11-13T14:18:10.251072
MEAN_MOTION    = 1.94133083
ECCENTRICITY   = .75911057
INCLINATION    = 16.3077
RA_OF_ASC_NODE = 266.3531
ARG_OF_PERICENTER = 177.1945
MEAN_ANOMALY   = 193.4320

EPHEMERIS_TYPE = 0
CLASSIFICATION_TYPE = U
NORAD_CAT_ID   = 66143
ELEMENT_SET_NO = 999
REV_AT_EPOCH   = 42
BSTAR          = .16444248E-2
MEAN_MOTION_DOT = .58092E-3
MEAN_MOTION_DDOT = -.652144E-6

CCSDS_OMM_VERS = 2.0
CREATION_DATE  = 
ORIGINATOR     = 

OBJECT_NAME    = SPAINSAT NG II
OBJECT_ID      = 2025-239A
CENTER_NAME    = EARTH
REF_FRAME      = TEME
TIME_SYSTEM    = UTC
MEAN_ELEMENT_THEORY = SGP/SGP4

EPOCH          = 2025-11-11T05:46:01.696224
MEAN_MOTION    = 1.07619643
ECCENTRICITY   = .79696358
INCLINATION    = 21.6664
RA_OF_ASC_NODE = 244.3422
ARG_OF_PERICENTER = 184.0309
MEAN_ANOMALY   = 158.8894

EPHEMERIS_TYPE = 0
CLASSIFICATION_TYPE = U
NORAD_CAT_ID   = 66144
ELEMENT_SET_NO = 999
REV_AT_EPOCH   = 22
BSTAR          = 0
MEAN_MOTION_DOT = -.3E-5
MEAN_MOTION_DDOT = 0

CCSDS_OMM_VERS = 2.0
CREATION_DATE  = 
ORIGINATOR     = 

OBJECT_NAME    = STARLINK-35318
OBJECT_ID      = 2025-240A
CENTER_NAME    = EARTH
REF_FRAME      = TEME
TIME_SYSTEM    = UTC
MEAN_ELEMENT_THEORY = SGP/SGP4

EPOCH          = 2025-11-14T06:00:02.000160
MEAN_MOTION    = 15.49322003
ECCENTRICITY   = .00014184
INCLINATION    = 53.1594
RA_OF_ASC_NODE = 241.0693
ARG_OF_PERICENTER = 75.4057
MEAN_ANOMALY   = 341.4862

EPHEMERIS_TYPE = 0
CLASSIFICATION_TYPE = U
NORAD_CAT_ID   = 66146
ELEMENT_SET_NO = 999
REV_AT_EPOCH   = 437
BSTAR          = -.14586174E-3
MEAN_MOTION_DOT = -.8556E-4
MEAN_MOTION_DDOT = 0

CCSDS_OMM_VERS = 2.0
CREATION_DATE  = 
ORIGINATOR     = 

OBJECT_NAME    = STARLINK-33948
OBJECT_ID      = 2025-240B
CENTER_NAME    = EARTH
REF_FRAME      = TEME
TIME_SYSTEM    = UTC
MEAN_ELEMENT_THEORY = SGP/SGP4

EPOCH          = 2025-11-14T06:00:02.000160
MEAN_MOTION    = 15.49318200
ECCENTRICITY   = .00014009
INCLINATION    = 53.1595
RA_OF_ASC_NODE = 241.0648
ARG_OF_PERICENTER = 76.7154
MEAN_ANOMALY   = 342.1070

EPHEMERIS_TYPE = 0
CLASSIFICATION_TYPE = U
NORAD_CAT_ID   = 66147
ELEMENT_SET_NO = 999
REV_AT_EPOCH   = 437
BSTAR          = -.63528736E-3
MEAN_MOTION_DOT = -.35632E-3
MEAN_MOTION_DDOT = 0

CCSDS_OMM_VERS = 2.0
CREATION_DATE  = 
ORIGINATOR     = 

OBJECT_NAME    = STARLINK-35081
OBJECT_ID      = 2025-240C
CENTER_NAME    = EARTH
REF_FRAME      = TEME
TIME_SYSTEM    = UTC
MEAN_ELEMENT_THEORY = SGP/SGP4

EPOCH          = 2025-11-14T06:00:02.000160
MEAN_MOTION    = 15.50553760
ECCENTRICITY   = .00008399
INCLINATION    = 53.1594
RA_OF_ASC_NODE = 241.0542
ARG_OF_PERICENTER = 97.3830
MEAN_ANOMALY   = 326.8080

EPHEMERIS_TYPE = 0
CLASSIFICATION_TYPE = U
NORAD_CAT_ID   = 66148
ELEMENT_SET_NO = 999
REV_AT_EPOCH   = 432
BSTAR          = .21506034E-2
MEAN_MOTION_DOT = .126573E-2
MEAN_MOTION_DDOT = 0

CCSDS_OMM_VERS = 2.0
CREATION_DATE  = 
ORIGINATOR     = 

OBJECT_NAME    = STARLINK-35601
OBJECT_ID      = 2025-240D
CENTER_NAME    = EARTH
REF_FRAME      = TEME
TIME_SYSTEM    = UTC
MEAN_ELEMENT_THEORY = SGP/SGP4

EPOCH          = 2025-11-14T06:00:02.000160
MEAN_MOTION    = 15.49279169
ECCENTRICITY   = .00008778
INCLINATION    = 53.1593
RA_OF_ASC_NODE = 241.0570
ARG_OF_PERICENTER = 65.0858
MEAN_ANOMALY   = 357.4904

EPHEMERIS_TYPE = 0
CLASSIFICATION_TYPE = U
NORAD_CAT_ID   = 66149
ELEMENT_SET_NO = 999
REV_AT_EPOCH   = 432
BSTAR          = .20441804E-2
MEAN_MOTION_DOT = .114804E-2
MEAN_MOTION_DDOT = 0

CCSDS_OMM_VERS = 2.0
CREATION_DATE  = 
ORIGINATOR     = 

OBJECT_NAME    = STARLINK-35605
OBJECT_ID      = 2025-240E
CENTER_NAME    = EARTH
REF_FRAME      = TEME
TIME_SYSTEM    = UTC
MEAN_ELEMENT_THEORY = SGP/SGP4

EPOCH          = 2025-11-14T06:00:02.000160
MEAN_MOTION    = 15.49249708
ECCENTRICITY   = .00009767
INCLINATION    = 53.1594
RA_OF_ASC_NODE = 241.0532
ARG_OF_PERICENTER = 63.9254
MEAN_ANOMALY   = 0.5609

EPHEMERIS_TYPE = 0
CLASSIFICATION_TYPE = U
NORAD_CAT_ID   = 66150
ELEMENT_SET_NO = 999
REV_AT_EPOCH   = 432
BSTAR          = .29190586E-2
MEAN_MOTION_DOT = .165027E-2
MEAN_MOTION_DDOT = 0

CCSDS_OMM_VERS = 2.0
CREATION_DATE  = 
ORIGINATOR     = 

OBJECT_NAME    = STARLINK-35540
OBJECT_ID      = 2025-240F
CENTER_NAME    = EARTH
REF_FRAME      = TEME
TIME_SYSTEM    = UTC
MEAN_ELEMENT_THEORY = SGP/SGP4

EPOCH          = 2025-11-14T06:00:02.000160
MEAN_MOTION    = 15.49369826
ECCENTRICITY   = .00007463
INCLINATION    = 53.1594
RA_OF_ASC_NODE = 241.0488
ARG_OF_PERICENTER = 63.8920
MEAN_ANOMALY   = 2.5226

EPHEMERIS_TYPE = 0
CLASSIFICATION_TYPE = U
NORAD_CAT_ID   = 66151
ELEMENT_SET_NO = 999
REV_AT_EPOCH   = 432
BSTAR          = -.12048329E-2
MEAN_MOTION_DOT = -.67025E-3
MEAN_MOTION_DDOT = 0

CCSDS_OMM_VERS = 2.0
CREATION_DATE  = 
ORIGINATOR     = 

OBJECT_NAME    = STARLINK-35455
OBJECT_ID      = 2025-240G
CENTER_NAME    = EARTH
REF_FRAME      = TEME
TIME_SYSTEM    = UTC
MEAN_ELEMENT_THEORY = SGP/SGP4

EPOCH          = 2025-11-14T06:00:02.000160
MEAN_MOTION    = 15.49359819
ECCENTRICITY   = .00011445
INCLINATION    = 53.1593
RA_OF_ASC_NODE = 241.0444
ARG_OF_PERICENTER = 94.7850
MEAN_ANOMALY   = 333.6483

EPHEMERIS_TYPE = 0
CLASSIFICATION_TYPE = U
NORAD_CAT_ID   = 66152
ELEMENT_SET_NO = 999
REV_AT_EPOCH   = 432
BSTAR          = -.27567882E-2
MEAN_MOTION_DOT = -.151114E-2
MEAN_MOTION_DDOT = 0

CCSDS_OMM_VERS = 2.0
CREATION_DATE  = 
ORIGINATOR     = 

OBJECT_NAME    = STARLINK-34752
OBJECT_ID      = 2025-240H
CENTER_NAME    = EARTH
REF_FRAME      = TEME
TIME_SYSTEM    = UTC
MEAN_ELEMENT_THEORY = SGP/SGP4

EPOCH          = 2025-11-14T06:00:02.000160
MEAN_MOTION    = 15.49313662
ECCENTRICITY   = .00013964
INCLINATION    = 53.1592
RA_OF_ASC_NODE = 241.0418
ARG_OF_PERICENTER = 80.4785
MEAN_ANOMALY   = 349.8440

EPHEMERIS_TYPE = 0
CLASSIFICATION_TYPE = U
NORAD_CAT_ID   = 66153
ELEMENT_SET_NO = 999
REV_AT_EPOCH   = 432
BSTAR          = -.44639085E-3
MEAN_MOTION_DOT = -.25199E-3
MEAN_MOTION_DDOT = 0

CCSDS_OMM_VERS = 2.0
CREATION_DATE  = 
ORIGINATOR     = 

OBJECT_NAME    = STARLINK-34625
OBJECT_ID      = 2025-240J
CENTER_NAME    = EARTH
REF_FRAME      = TEME
TIME_SYSTEM    = UTC
MEAN_ELEMENT_THEORY = SGP/SGP4

EPOCH          = 2025-11-14T06:00:02.000160
MEAN_MOTION    = 15.49318266
ECCENTRICITY   = .00013689
INCLINATION    = 53.1593
RA_OF_ASC_NODE = 241.0374
ARG_OF_PERICENTER = 97.6976
MEAN_ANOMALY   = 334.5368

EPHEMERIS_TYPE = 0
CLASSIFICATION_TYPE = U
NORAD_CAT_ID   = 66154
ELEMENT_SET_NO = 999
REV_AT_EPOCH   = 437
BSTAR          = -.51113263E-3
MEAN_MOTION_DOT = -.2878E-3
MEAN_MOTION_DDOT = 0

CCSDS_OMM_VERS = 2.0
CREATION_DATE  = 
ORIGINATOR     = 

OBJECT_NAME    = STARLINK-35580
OBJECT_ID      = 2025-240K
CENTER_NAME    = EARTH
REF_FRAME      = TEME
TIME_SYSTEM    = UTC
MEAN_ELEMENT_THEORY = SGP/SGP4

EPOCH          = 2025-11-14T06:00:02.000160
MEAN_MOTION    = 15.49359781
ECCENTRICITY   = .0000822
INCLINATION    = 53.1593
RA_OF_ASC_NODE = 241.0324
ARG_OF_PERICENTER = 62.7296
MEAN_ANOMALY   = 11.3579

EPHEMERIS_TYPE = 0
CLASSIFICATION_TYPE = U
NORAD_CAT_ID   = 66155
ELEMENT_SET_NO = 999
REV_AT_EPOCH   = 432
BSTAR          = -.10107841E-2
MEAN_MOTION_DOT = -.56359E-3
MEAN_MOTION_DDOT = 0

