CZ-5 R/B                
1 66143U 25238B   25317.59595198  .00058092 -65214-6  16444-2 0  9999
2 66143  16.3077 266.3531 7591105 177.1945 193.4320  1.94133083   424
SPAINSAT NG II          
1 66144U 25239A   25315.24029741 -.00000300  00000+0  00000+0 0  9999
2 66144  21.6664 244.3422 7969635 184.0309 158.8894  1.07619643   223
STARLINK-35318          
1 66146U 25240A   25318.25002315 -.00008556  00000+0 -14586-3 0  9995
2 66146  53.1594 241.0693 0001418  75.4057 341.4862 15.49322003  4370
STARLINK-33948          
1 66147U 25240B   25318.25002315 -.00035632  00000+0 -63529-3 0  9992
2 66147  53.1595 241.0648 0001400  76.7154 342.1070 15.49318200  4378
STARLINK-35081          
1 66148U 25240C   25318.25002315  .00126573  00000+0  21506-2 0  9994
2 66148  53.1594 241.0542 0000839  97.3830 326.8080 15.50553760  4325
STARLINK-35601          
1 66149U 25240D   25318.25002315  .00114804  00000+0  20442-2 0  9997
2 66149  53.1593 241.0570 0000877  65.0858 357.4904 15.49279169  4321
STARLINK-35605          
1 66150U 25240E   25318.25002315  .00165027  00000+0  29191-2 0  9992
2 66150  53.1594 241.0532 0000976  63.9254   0.5609 15.49249708  4323
STARLINK-35540          
1 66151U 25240F   25318.25002315 -.00067025  00000+0 -12048-2 0  9997
2 66151  53.1594 241.0488 0000746  63.8920   2.5226 15.49369826  4329
STARLINK-35455          
1 66152U 25240G   25318.25002315 -.00151114  00000+0 -27568-2 0  9994
2 66152  53.1593 241.0444 0001144  94.7850 333.6483 15.49359819  4323
STARLINK-34752          
1 66153U 25240H   25318.25002315 -.00025199  00000+0 -44639-3 0  9997
2 66153  53.1592 241.0418 0001396  80.4785 349.8440 15.49313662  4320
STARLINK-34625          
1 66154U 25240J   25318.25002315 -.00028780  00000+0 -51113-3 0  9992
2 66154  53.1593 241.0374 0001368  97.6976 334.5368 15.49318266  4374
STARLINK-35580          
1 66155U 25240K   25318.25002315 -.00056359  00000+0 -10108-2 0  9994
2 66155  53.1593 241.0324 0000822  62.7296  11.3579 15.49359781  4328
